OBJECT_NAME,OBJECT_ID,EPOCH,MEAN_MOTION,ECCENTRICITY,INCLINATION,RA_OF_ASC_NODE,ARG_OF_PERICENTER,MEAN_ANOMALY,EPHEMERIS_TYPE,CLASSIFICATION_TYPE,NORAD_CAT_ID,ELEMENT_SET_NO,REV_AT_EPOCH,BSTAR,MEAN_MOTION_DOT,MEAN_MOTION_DDOT
IRIDIUM 33 DEB,1997-051XX,2026-02-28T15:06:44.175744,14.57402835,.00223326,86.3779,9.6094,198.6200,334.6874,0,U,37562,999,87462,.11278938E-2,.5152E-4,0
IRIDIUM 33 DEB,1997-051YA,2026-02-28T12:04:02.447040,14.51968224,.00124493,86.3534,335.7057,170.3944,189.7502,0,U,37565,999,66965,.53799697E-3,.2193E-4,0
IRIDIUM 33 DEB,1997-051YD,2026-02-28T14:58:31.026144,14.51717530,.00914309,86.3377,132.2843,202.2667,157.4559,0,U,38017,999,62531,.22826087E-2,.9703E-4,0
IRIDIUM 33 DEB,1997-051YJ,2026-02-25T12:48:22.728960,14.41987333,.0044157,86.2730,343.6792,157.1219,203.1962,0,U,38022,999,70271,.95268E-3,.3179E-4,0
IRIDIUM 33 DEB,1997-051YQ,2026-02-25T01:19:48.939456,14.46466531,.0026047,86.3278,327.9721,233.9975,125.8813,0,U,38028,999,66569,.24955643E-3,.921E-5,0
IRIDIUM 33 DEB,1997-051ZC,2026-02-27T14:55:57.152928,14.27429375,.00625345,86.2968,15.7717,304.9916,181.5066,0,U,38228,999,85878,.33141096E-3,.848E-5,0
IRIDIUM 33 DEB,1997-051ZR,2026-02-24T11:51:11.183616,14.55469567,.00037915,86.3244,318.0623,131.3357,228.8177,0,U,38241,999,61273,.65363564E-3,.2863E-4,0
IRIDIUM 33 DEB,1997-051AAB,2026-02-23T12:18:19.545408,14.51138309,.0024339,86.3472,338.3518,199.6569,160.3701,0,U,38474,999,66373,.65939086E-3,.2644E-4,0
IRIDIUM 33 DEB,1997-051AAN,2026-02-01T08:04:01.703712,14.22082273,.01712939,86.3718,237.1194,110.1022,68.5667,0,U,39781,999,8825,.35030149E-2,.9026E-4,0
IRIDIUM 33 DEB,1997-051ABL,2026-02-27T15:33:17.327808,14.45414795,.00072922,86.3846,20.7825,164.3719,320.3966,0,U,40998,999,7792,.53735062E-3,.191E-4,0
IRIDIUM 33 DEB,1997-051ABN,2026-02-04T03:14:59.029152,14.36167469,.01982718,86.2792,170.9115,102.1484,74.9261,0,U,46435,999,8681,.70927706E-2,.25972E-3,0
IRIDIUM 33 DEB,1997-051ABR,2026-02-01T03:32:19.354272,14.42316373,.0039381,86.2663,340.7289,162.3242,255.9620,0,U,46734,999,63737,.8427836E-3,.2827E-4,0
IRIDIUM 33 DEB,1997-051ACD,2026-02-15T04:06:14.442336,15.02823090,.00183243,86.3384,302.6959,121.5358,29.3036,0,U,46971,999,65196,.24316654E-2,.32805E-3,0
IRIDIUM 33 DEB,1997-051ACE,2026-02-13T16:21:13.155264,14.51029384,.00070915,86.3900,12.2992,258.5659,223.6549,0,U,46972,999,62485,.64339815E-3,.2565E-4,0
IRIDIUM 33 DEB,1997-051ACG,2026-02-19T19:32:51.839232,14.46114347,.00881867,86.2960,75.0684,318.5740,40.8797,0,U,46974,999,58506,.22534998E-2,.8465E-4,0