IRIDIUM 33 DEB          
1 37562U 97051XX  26059.62967796  .00005152  00000+0  11279-2 0  9993
2 37562  86.3779   9.6094 0022332 198.6200 334.6874 14.57402835874622
IRIDIUM 33 DEB          
1 37565U 97051YA  26059.50280610  .00002193  00000+0  53800-3 0  9995
2 37565  86.3534 335.7057 0012449 170.3944 189.7502 14.51968224669651
IRIDIUM 33 DEB          
1 38017U 97051YD  26059.62397021  .00009703  00000+0  22826-2 0  9993
2 38017  86.3377 132.2843 0091430 202.2667 157.4559 14.51717530625317
IRIDIUM 33 DEB          
1 38022U 97051YJ  26056.53359640  .00003179  00000+0  95268-3 0  9993
2 38022  86.2730 343.6792 0044157 157.1219 203.1962 14.41987333702717
IRIDIUM 33 DEB          
1 38028U 97051YQ  26056.05542754  .00000921  00000+0  24956-3 0  9994
2 38028  86.3278 327.9721 0026047 233.9975 125.8813 14.46466531665695
IRIDIUM 33 DEB          
1 38228U 97051ZC  26058.62218927  .00000848  00000+0  33141-3 0  9997
2 38228  86.2968  15.7717 0062534 304.9916 181.5066 14.27429375858781
IRIDIUM 33 DEB          
1 38241U 97051ZR  26055.49387944  .00002863  00000+0  65364-3 0  9991
2 38241  86.3244 318.0623 0003791 131.3357 228.8177 14.55469567612739
IRIDIUM 33 DEB          
1 38474U 97051AAB 26054.51272622  .00002644  00000+0  65939-3 0  9992
2 38474  86.3472 338.3518 0024339 199.6569 160.3701 14.51138309663733
IRIDIUM 33 DEB          
1 39781U 97051AAN 26032.33613083  .00009026  00000+0  35030-2 0  9999
2 39781  86.3718 237.1194 0171293 110.1022  68.5667 14.22082273 88252
IRIDIUM 33 DEB          
1 40998U 97051ABL 26058.64811722  .00001910  00000+0  53735-3 0  9990
2 40998  86.3846  20.7825 0007292 164.3719 320.3966 14.45414795 77920
IRIDIUM 33 DEB          
1 46435U 97051ABN 26035.13540543  .00025972  00000+0  70928-2 0  9997
2 46435  86.2792 170.9115 0198271 102.1484  74.9261 14.36167469 86819
IRIDIUM 33 DEB          
1 46734U 97051ABR 26032.14744623  .00002827  00000+0  84278-3 0  9990
2 46734  86.2663 340.7289 0039381 162.3242 255.9620 14.42316373637373
IRIDIUM 33 DEB          
1 46971U 97051ACD 26046.17100049  .00032805  00000+0  24317-2 0  9995
2 46971  86.3384 302.6959 0018324 121.5358  29.3036 15.02823090651968
IRIDIUM 33 DEB          
1 46972U 97051ACE 26044.68140226  .00002565  00000+0  64340-3 0  9992
2 46972  86.3900  12.2992 0007091 258.5659 223.6549 14.51029384624851
IRIDIUM 33 DEB          
1 46974U 97051ACG 26050.81448888  .00008465  00000+0  22535-2 0  9995
2 46974  86.2960  75.0684 0088186 318.5740  40.8797 14.46114347585066
